NORAD_CAT_ID,OBJECT_NAME,OBJECT_TYPE,EPOCH,MEAN_MOTION,ECCENTRICITY,INCLINATION,RA_OF_ASC_NODE,ARG_OF_PERICENTER,MEAN_ANOMALY,BSTAR,MEAN_MOTION_DOT,MEAN_MOTION_DDOT,TLE_LINE0,TLE_LINE1,TLE_LINE2,SEMIMAJOR_AXIS,PERIOD,APOGEE,PERIGEE,DECAYED
53430.0,STARLINK-4538,PAYLOAD,2023-05-18 02:29:04,15.08841754,0.0001304,53.218,32.6818,90.8606,269.2536,0.00011165,1.49e-05,0.0,0 STARLINK-4538,1 53430U 22097AU  23138.10352494  .00001490  00000-0  11165-3 0  9991,2 53430  53.2180  32.6818 0001304  90.8606 269.2536 15.08841754 43329,6917.875,95.437,540.642,538.838,0.0
53430.0,STARLINK-4538,PAYLOAD,2023-05-18 23:09:05,15.08845218,0.0001399,53.2184,28.8167,92.2988,267.8164,0.00015131,2.121e-05,0.0,0 STARLINK-4538,1 53430U 22097AU  23138.96464325  .00002121  00000-0  15131-3 0  9991,2 53430  53.2184  28.8167 0001399  92.2988 267.8164 15.08845218 43915,6917.864,95.437,540.697,538.762,0.0
53430.0,STARLINK-4538,PAYLOAD,2023-05-19 22:59:52,15.08842528,0.0001387,53.2189,24.355,96.7467,263.3683,7.1556e-05,8.51e-06,0.0,0 STARLINK-4538,1 53430U 22097AU  23139.95824301  .00000851  00000-0  71556-4 0  9997,2 53430  53.2189  24.3550 0001387  96.7467 263.3683 15.08842528 44060,6917.873,95.437,540.697,538.778,0.0
53430.0,STARLINK-4538,PAYLOAD,2023-05-20 02:10:38,15.08843449,0.0001396,53.219,23.7604,96.6545,263.4606,7.3808e-05,8.87e-06,0.0,0 STARLINK-4538,1 53430U 22097AU  23140.09072188  .00000887  00000-0  73808-4 0  9993,2 53430  53.2190  23.7604 0001396  96.6545 263.4606 15.08843449 43621,6917.87,95.437,540.701,538.769,0.0
53430.0,STARLINK-4538,PAYLOAD,2023-05-20 19:39:52,15.0881483,0.0001537,53.2192,20.489,98.7519,261.3647,0.00059192,9.139e-05,0.0,0 STARLINK-4538,1 53430U 22097AU  23140.81935980  .00009139  00000-0  59192-3 0  9999,2 53430  53.2192  20.4890 0001537  98.7519 261.3647 15.08814830 44192,6917.957,95.439,540.886,538.759,0.0
53430.0,STARLINK-4538,PAYLOAD,2023-05-21 02:01:25,15.08838892,0.0001299,53.2171,19.3016,77.5574,282.5563,0.00072915,0.00011335,0.0,0 STARLINK-4538,1 53430U 22097AU  23141.08432102  .00011335  00000-0  72915-3 0  9996,2 53430  53.2171  19.3016 0001299  77.5574 282.5563 15.08838892 44238,6917.884,95.438,540.647,538.85,0.0
53430.0,STARLINK-4538,PAYLOAD,2023-05-21 16:19:54,15.08818566,6.33e-05,53.2169,16.6257,83.1303,276.9761,-0.00027723,-4.694e-05,0.0,0 STARLINK-4538,1 53430U 22097AU  23141.68049320 -.00004694  00000-0 -27723-3 0  9997,2 53430  53.2169  16.6257 0000633  83.1303 276.9761 15.08818566 43867,6917.946,95.439,540.249,539.373,0.0
53430.0,STARLINK-4538,PAYLOAD,2023-05-21 22:41:27,15.08824431,0.0001107,53.217,15.4366,102.7542,257.3574,-0.0001767,-3.098e-05,0.0,0 STARLINK-4538,1 53430U 22097AU  23141.94545272 -.00003098  00000-0 -17670-3 0  9990,2 53430  53.2170  15.4366 0001107 102.7542 257.3574 15.08824431 44366,6917.928,95.439,540.559,539.027,0.0
53430.0,STARLINK-4538,PAYLOAD,2023-05-22 08:13:45,15.08832304,0.0001222,53.2173,13.6526,105.9377,254.175,-1.4627e-05,-5.21e-06,0.0,0 STARLINK-4538,1 53430U 22097AU  23142.34289222 -.00000521  00000-0 -14627-4 0  9993,2 53430  53.2173  13.6526 0001222 105.9377 254.1750 15.08832304 43960,6917.904,95.438,540.614,538.924,0.0
53430.0,STARLINK-4538,PAYLOAD,2023-05-22 16:10:41,15.08841391,9.64e-05,53.2161,12.1643,96.6901,263.4201,2.8994e-05,1.74e-06,0.0,0 STARLINK-4538,1 53430U 22097AU  23142.67408955  .00000174  00000-0  28994-4 0  9999,2 53430  53.2161  12.1643 0000964  96.6901 263.4201 15.08841391 44479,6917.876,95.437,540.408,539.074,0.0
53430.0,STARLINK-4538,PAYLOAD,2023-05-23 19:12:14,15.08845727,9.27e-05,53.2156,7.1092,107.0113,253.0981,0.00036854,5.583e-05,0.0,0 STARLINK-4538,1 53430U 22097AU  23143.80017193  .00005583  00000-0  36854-3 0  9997,2 53430  53.2156   7.1092 0000927 107.0113 253.0981 15.08845727 44642,6917.863,95.437,540.369,539.087,0.0
53430.0,STARLINK-4538,PAYLOAD,2023-05-23 22:23:01,15.08849667,9.38e-05,53.2158,6.515,109.7717,250.3376,0.0003725,5.647e-05,0.0,0 STARLINK-4538,1 53430U 22097AU  23143.93265077  .00005647  00000-0  37250-3 0  9999,2 53430  53.2158   6.5150 0000938 109.7717 250.3376 15.08849667 44200,6917.851,95.437,540.365,539.067,0.0
53430.0,STARLINK-4538,PAYLOAD,2023-05-24 14:16:52,15.0884112,0.0001121,53.2162,3.5441,114.6914,245.4195,2.1988e-05,6.2e-07,0.0,0 STARLINK-4538,1 53430U 22097AU  23144.59505085  .00000062  00000-0  21988-4 0  9996,2 53430  53.2162   3.5441 0001121 114.6914 245.4195 15.08841120 44305,6917.877,95.437,540.517,538.966,0.0
53430.0,STARLINK-4538,PAYLOAD,2023-05-25 18:53:48,15.08846971,0.0001053,53.2169,358.1901,93.8072,266.304,0.00017746,2.538e-05,0.0,0 STARLINK-4538,1 53430U 22097AU  23145.78736947  .00002538  00000-0  17746-3 0  9997,2 53430  53.2169 358.1901 0001053  93.8072 266.3040 15.08846971 44488,6917.859,95.437,540.453,538.996,0.0
53430.0,STARLINK-4538,PAYLOAD,2023-05-25 20:29:11,15.08847668,0.000107,53.217,357.8928,91.1707,268.9408,0.00018358,2.636e-05,0.0,0 STARLINK-4538,1 53430U 22097AU  23145.85360895  .00002636  00000-0  18358-3 0  9999,2 53430  53.2170 357.8928 0001070  91.1707 268.9408 15.08847668 44952,6917.857,95.437,540.462,538.982,0.0
53430.0,STARLINK-4538,PAYLOAD,2023-05-25 23:39:57,15.08851765,0.0001071,53.2169,357.2976,94.9045,265.207,0.0002373,3.492e-05,0.0,0 STARLINK-4538,1 53430U 22097AU  23145.98608622  .00003492  00000-0  23730-3 0  9997,2 53430  53.2169 357.2976 0001071  94.9045 265.2070 15.08851765 44974,6917.844,95.437,540.45,538.969,0.0
53430.0,STARLINK-4538,PAYLOAD,2023-05-26 18:44:36,15.08839257,0.000133,53.2171,353.7278,115.1388,244.9742,3.5231e-07,-2.82e-06,0.0,0 STARLINK-4538,1 53430U 22097AU  23146.78097223 -.00000282  00000-0  35231-6 0  9992,2 53430  53.2171 353.7278 0001330 115.1388 244.9742 15.08839257 44632,6917.883,95.438,540.668,538.828,0.0
53430.0,STARLINK-4538,PAYLOAD,2023-05-26 20:19:59,15.08838838,0.0001249,53.2182,353.4287,122.1244,237.987,-3.9849e-05,-9.22e-06,0.0,0 STARLINK-4538,1 53430U 22097AU  23146.84721237 -.00000922  00000-0 -39849-4 0  9997,2 53430  53.2182 353.4287 0001249 122.1244 237.9870 15.08838838 45100,6917.884,95.438,540.613,538.885,0.0
53430.0,STARLINK-4538,PAYLOAD,2023-05-27 20:10:45,15.08853383,9.5e-05,53.2177,348.9701,73.7083,286.4013,-3.3587e-05,-8.22e-06,0.0,0 STARLINK-4538,1 53430U 22097AU  23147.84080718 -.00000822  00000-0 -33587-4 0  9992,2 53430  53.2177 348.9701 0000950  73.7083 286.4013 15.08853383 44798,6917.839,95.437,540.362,539.047,0.0
53430.0,STARLINK-4538,PAYLOAD,2023-05-27 21:46:08,15.08853968,9.54e-05,53.2179,348.6731,79.1187,280.9913,-2.0851e-05,-6.2e-06,0.0,0 STARLINK-4538,1 53430U 22097AU  23147.90704610 -.00000620  00000-0 -20851-4 0  9999,2 53430  53.2179 348.6731 0000954  79.1187 280.9913 15.08853968 45269,6917.838,95.437,540.363,539.043,0.0
53430.0,STARLINK-4538,PAYLOAD,2023-05-27 23:21:31,15.08851372,0.0001014,53.2179,348.3764,97.809,262.3018,2.9683e-05,1.85e-06,0.0,0 STARLINK-4538,1 53430U 22097AU  23147.97328601  .00000185  00000-0  29683-4 0  9994,2 53430  53.2179 348.3764 0001014  97.8090 262.3018 15.08851372 45278,6917.846,95.437,540.412,539.009,0.0
53430.0,STARLINK-4538,PAYLOAD,2023-05-28 20:01:33,15.08841681,0.0001043,53.2174,344.5111,77.8784,282.2325,0.00013119,1.801e-05,0.0,0 STARLINK-4538,1 53430U 22097AU  23148.83441223  .00001801  00000-0  13119-3 0  9998,2 53430  53.2174 344.5111 0001043  77.8784 282.2325 15.08841681 44944,6917.875,95.437,540.462,539.019,0.0
53430.0,STARLINK-4538,PAYLOAD,2023-05-29 13:30:48,15.08838735,0.0001011,53.2167,341.2407,76.3298,283.7806,1.9059e-06,-2.57e-06,0.0,0 STARLINK-4538,1 53430U 22097AU  23149.56305820 -.00000257  00000-0  19059-5 0  9997,2 53430  53.2167 341.2407 0001011  76.3298 283.7806 15.08838735 45517,6917.884,95.438,540.449,539.05,0.0
53430.0,STARLINK-4538,PAYLOAD,2023-05-29 16:41:34,15.08839355,0.0001004,53.217,340.6462,77.8662,282.2443,4.45e-06,-2.17e-06,0.0,0 STARLINK-4538,1 53430U 22097AU  23149.69553748 -.00000217  00000-0  44500-5 0  9990,2 53430  53.2170 340.6462 0001004  77.8662 282.2443 15.08839355 45079,6917.882,95.438,540.442,539.053,0.0
53430.0,STARLINK-4538,PAYLOAD,2023-05-29 19:52:20,15.08843277,9.99e-05,53.217,340.0518,79.6965,280.414,2.9442e-05,1.81e-06,0.0,0 STARLINK-4538,1 53430U 22097AU  23149.82801423  .00000181  00000-0  29442-4 0  9997,2 53430  53.2170 340.0518 0000999  79.6965 280.4140 15.08843277 45558,6917.87,95.437,540.426,539.044,0.0
53430.0,STARLINK-4538,PAYLOAD,2023-05-30 11:46:12,15.08819755,9.68e-05,53.2167,337.0791,85.497,274.6132,0.00036889,5.585e-05,0.0,0 STARLINK-4538,1 53430U 22097AU  23150.49042465  .00005585  00000-0  36889-3 0  9990,2 53430  53.2167 337.0791 0000968  85.4970 274.6132 15.08819755 45651,6917.942,95.439,540.477,539.138,0.0
53430.0,STARLINK-4538,PAYLOAD,2023-05-30 19:43:07,15.08842176,0.0001,53.2169,335.5916,84.9845,275.1261,7.4955e-05,9.05e-06,0.0,0 STARLINK-4538,1 53430U 22097AU  23150.82161457  .00000905  00000-0  74955-4 0  9998,2 53430  53.2169 335.5916 0001000  84.9845 275.1261 15.08842176 45706,6917.874,95.437,540.431,539.047,0.0
53430.0,STARLINK-4538,PAYLOAD,2023-05-31 05:15:26,15.08842052,9.92e-05,53.2168,333.8076,87.4208,272.6897,8.7532e-05,1.106e-05,0.0,0 STARLINK-4538,1 53430U 22097AU  23151.21905448  .00001106  00000-0  87532-4 0  9997,2 53430  53.2168 333.8076 0000992  87.4208 272.6897 15.08842052 45769,6917.874,95.437,540.425,539.053,0.0
53430.0,STARLINK-4538,PAYLOAD,2023-05-31 21:09:17,15.08846001,9.55e-05,53.217,330.8332,88.3579,271.7522,0.00011347,1.519e-05,0.0,0 STARLINK-4538,1 53430U 22097AU  23151.88145146  .00001519  00000-0  11347-3 0  9999,2 53430  53.2170 330.8332 0000955  88.3579 271.7522 15.08846001 45868,6917.862,95.437,540.388,539.066,0.0
53430.0,STARLINK-4538,PAYLOAD,2023-06-01 05:06:13,15.08841593,0.0001015,53.2172,329.3463,76.4998,283.6107,9.3536e-05,1.201e-05,0.0,0 STARLINK-4538,1 53430U 22097AU  23152.21265545  .00001201  00000-0  93536-4 0  9992,2 53430  53.2172 329.3463 0001015  76.4998 283.6107 15.08841593 45917,6917.876,95.437,540.443,539.038,0.0
